[
    {
        "Altitude(m)": 604983.0529886329,
        "Argument of Periapsis(deg)": 0.0,
        "Eccentricity": 0.0,
        "Inclination(deg)": 60.0,
        "Latitude(deg)": -0.09266415185888212,
        "Longitude(deg)": -159.91608378349628,
        "Mean Anomaly(deg)": 179.99999999999997,
        "RAAN(deg)": 120.0,
        "Satellite Name": "Test1 539",
        "Satellite Number": 539,
        "Semi-Major Axis(m)": 6980739.136638005,
        "Time(s)": 0
    },
    {
        "Altitude(m)": 605055.3325665743,
        "Argument of Periapsis(deg)": 0.00010418945913296404,
        "Eccentricity": 0.0,
        "Inclination(deg)": 60.0,
        "Latitude(deg)": -0.6330745661941909,
        "Longitude(deg)": -159.6479599472434,
        "Mean Anomaly(deg)": 180.62010614546185,
        "RAAN(deg)": 119.99957995086024,
        "Satellite Name": "Test1 539",
        "Satellite Number": 539,
        "Semi-Major Axis(m)": 6980739.136638005,
        "Time(s)": 10
    }
]